    PI94F010  2025 12  4.4537  1.561010  0.646932  109.4530   20.6113    4.0270  20240907  15.5  4.0  P/1894 F1 (Denning)                                      MPEC 2024-Q14
    PJ96R020  2026 06 15.4882  2.586904  0.314446  333.4540   40.0548    2.5994  20240907  11.5  4.0  P/1996 R2 (Lagerkvist)                                   NK   1615
    PJ98V24S  2027 09  7.2802  3.420057  0.243673  244.7971  159.0556    5.0284  20240907  13.0  2.0  P/1998 VS24 (LINEAR)                                     MPC 75703
    PJ99D010  2026 10 10.3456  1.659419  0.713163  173.8394  348.7601   21.2550  20240907   9.0  4.0  P/1999 D1 (Hermann)                                      unp
    PJ99R010  2023 08 21.0326  0.050216  0.979981   56.8459  351.6170   11.4300  20240907   9.0  4.0  P/1999 R1 (SOHO)                                         unp
    PJ99R28O  2025 10 30.2562  1.122598  0.672303  231.3413  137.8547    7.5666  20240907  20.0  2.0  P/1999 RO28 (LONEOS)                                     NK    731
    PJ99XC0N  2025 12 22.2004  3.297807  0.211018  161.6702  285.2533    5.0295  20240907  13.5  2.0  P/1999 XN120 (Catalina)                                  MPC 75704
    PK00Q46J  2028 12  5.6228  1.879192  0.675486  222.2721  158.1034    4.4329  20240907   9.0  4.0  P/2000 QJ46 (LINEAR)                                     unp
    PK00R020  2025 12  2.2716  1.627648  0.530757  176.5884  160.2830   11.6799  20240907  18.0  4.0  P/2000 R2 (LINEAR)                                       NK    744
    PK01B50B  2028 05 24.3832  2.381167  0.586023  193.3495  351.1515   10.3274  20240907  13.0  4.0  P/2001 BB50 (LINEAR-NEAT)                                unp
    PK01H050  2030 10 24.5474  2.446354  0.598652  224.6221  328.6536    8.3701  20240907  12.0  4.0  P/2001 H5 (NEAT)                                         MPC 43019
    PK02E57J  2018 06 18.8565  2.624867  0.593469  167.2596  330.2463    4.9854  20240907  12.5  4.0  P/2002 EJ57 (LINEAR)                                     MPEC 2023-UR6
    CK02V94Q  2006 02  7.7550  6.765284  0.963572   99.8213   35.1438   70.6949  20240907   9.5  2.0  C/2002 VQ94 (LINEAR)                                     MPC 75007
    PK03F020  2019 11 14.2595  2.984429  0.541585  192.4857  358.9092   11.6637  20240907  16.5  2.0  P/2003 F2 (NEAT)                                         MPC 50354
    PK03Q29X  2025 08  7.1128  4.228940  0.471613   37.6664  264.5334   11.3992  20240907   8.5  4.0  P/2003 QX29 (NEAT)                                       MPC 50139
    PK03T120  2024 07  3.7560  0.593665  0.770263  219.7854  174.5773   11.0251  20240907  17.0  4.0  P/2003 T12 (SOHO)                                        MPC105235
    PK03U030  2026 02 23.6230  2.467797  0.510615  357.0362  347.9311    7.0162  20240907  12.0  4.0  P/2003 U3 (NEAT)                                         unp
    PK04FE0Y  2027 02 21.6954  4.013891  0.192361  254.1376  327.2653    2.1623  20240907  12.5  2.0  P/2004 FY140 (LINEAR)                                    MPEC 2022-YN2
    PK04H020  2023 08  5.7121  2.639903  0.416857  104.6972  131.3747   11.7746  20240907   9.0  4.0  P/2004 H2 (Larsen)                                       unp
    PK04R030  2021 09 17.1601  3.542780  0.254383   37.4298  305.1218   12.7954  20240907  14.5  4.0  P/2004 R3 (LINEAR-NEAT)                                  MPC 53304
    PK04V050  2027 08  7.7174  4.433494  0.447561   87.3018   47.7407   19.3455  20240907   8.0  4.0  P/2004 V5 (LINEAR-Hill)                                  MPC 75705
    PK04V05b  2027 08  8.6846  4.433512  0.447583   87.3053   47.7411   19.3456  20240907   8.0  4.0  P/2004 V5-B (LINEAR-Hill)                                MPC 75705
    PK05E010  2023 09 27.8160  4.402624  0.376822  193.8796  335.5156    4.2612  20240907  10.0  4.0  P/2005 E1 (Tubbiolo)                                     MPC 54164
    PK05G08F  2019 09 15.9367  2.798616  0.513895  285.4075  312.8396    1.1658  20240907   9.0  4.0  P/2005 GF8 (LONEOS)                                      unp
    PK05J010  2025 07 11.7276  1.539631  0.569194  338.9172  268.8004   31.7407  20240907  16.5  4.0  P/2005 J1 (McNaught)                                     MPC 79019
    PK05L010  2021 11 23.1871  3.063240  0.231805  155.1238  133.0668    7.8125  20240907   9.5  4.0  P/2005 L1 (McNaught)                                     MPC 74246
    PK05S020  2029 01 23.5316  6.401403  0.198794  229.8401  161.3473    3.1375  20240907   7.5  4.0  P/2005 S2 (Skiff)                                        MPC 75706
    PK05SL6B  2026 01 14.2455  3.823525  0.465876   83.1970    1.1164   24.1177  20240907  10.0  4.0  P/2005 SB216 (LONEOS)                                    MPEC 2024-R78
    PK05T030  2026 08 17.3614  6.254468  0.175128    6.9206   27.6377    6.2293  20240907   9.0  4.0  P/2005 T3 (Read)                                         MPC 73461
    PK05T040  2034 05 29.1187  0.651434  0.930352   41.8572   25.9086  160.2750  20240907  15.0  4.0  P/2005 T4 (SWAN)                                         MPC 73461
    PK05T050  2025 06 14.8314  3.253700  0.552118  304.7550   57.0674   21.3833  20240907  11.0  4.0  P/2005 T5 (Broughton)                                    MPC 75706
    PK05XD2R  2028 03 10.9888  2.132485  0.432554  240.7666  265.3963   14.4753  20240907  16.0  4.0  P/2005 XR132 (Spacewatch)                                MPEC 2024-DD5
    PK05Y020  2020 10  9.7750  3.367848  0.464638  193.3740   93.8064   19.1498  20240907   9.0  4.0  P/2005 Y2 (McNaught)                                     unp
    PK06A02H  2023 08 24.8193  3.991376  0.417102  196.0302  261.6464   10.0162  20240907  13.0  4.0  P/2006 AH2 (Sheppard-Tholen)                             MPEC 2024-JU4
    PK06F040  2026 02 24.2053  2.267352  0.350057   31.3275  183.5657   12.4277  20240907   9.0  4.0  P/2006 F4 (Spacewatch)                                   unp
    PK06H30R  2028 10  8.9703  1.219639  0.843651  117.4680  309.7900   31.9353  20240907  11.0  4.0  P/2006 HR30 (Siding Spring)                              MPC 75707
    PK06X16G  2027 11 28.9699  2.113140  0.419236   40.9131   78.4045    9.0627  20240907   9.0  4.0  P/2006 XG16 (Spacewatch)                                 unp
    PK07C020  2026 03 21.6241  3.692602  0.473472  180.1530  275.2431    8.6123  20240907  10.0  4.0  P/2007 C2 (Catalina)                                     MPC 75707
    CK07D010  2007 06 11.3374  8.745024  0.992522  339.7012  171.1149   41.5078  20240907   3.5  4.0  C/2007 D1 (LINEAR)                                       MPC 84315
    PK07K020  2027 01 27.2555  2.306883  0.685736  347.1762  188.5530    7.6107  20240907  14.0  4.0  P/2007 K2 (Gibbs)                                        MPEC 2024-GJ3
    PK07Q020  2020 11 25.9701  1.872961  0.669155  162.8708  172.2100   10.1973  20240907  16.0  4.0  P/2007 Q2 (Gilmore)                                      MPC 60925
    PK07S010  2022 10  6.6769  2.526216  0.338268  245.2403  141.3317    5.9642  20240907  13.0  4.0  P/2007 S1 (Zhao)                                         MPC 73462
    CK07S020  2008 08 29.4498  5.547439  0.556187  210.1645  296.1206   16.9047  20240907   6.5  4.0  C/2007 S2 (Lemmon)                                       MPEC 2024-GJ3
    PK07T020  2023 11 17.5997  0.652569  0.785599  359.6708    3.3868    9.7505  20240907  18.5  4.0  P/2007 T2 (Kowalski)                                     MPC 61994
    CK08E010  2008 08 17.4958  4.816925  0.552558  270.2843  188.9773   34.8666  20240907   7.0  4.0  C/2008 E1 (Catalina)                                     MPEC 2024-GJ3
    PK08O030  2031 12 22.2100  2.491734  0.696477  341.1944   47.6083   32.3258  20240907  13.0  4.0  P/2008 O3 (Boattini)                                     MPC 64114
    PK08Y030  2031 10  7.5803  4.442677  0.447534  238.0686  262.8432   38.7788  20240907   8.5  4.0  P/2008 Y3 (McNaught)                                     MPC 75710
    PK09B010  2026 06 30.3288  2.449393  0.636063  128.9660  297.1064   22.2573  20240907  13.0  4.0  P/2009 B1 (Boattini)                                     MPC 75710
    CK09G010  2009 04 18.0467  1.140088  0.997545  175.5361  120.8055  108.1719  20240907   9.0  4.0  C/2009 G1 (STEREO)                                       MPC 66466
    PK09O030  2031 01 24.9438  2.434443  0.686656  154.4592  183.7147   16.2656  20240907  12.5  4.0  P/2009 O3 (Hill)                                         MPC 75710
    PK09Q050  2029 12 17.5498  2.898691  0.609628  209.1886  160.2429   40.9667  20240907  10.0  4.0  P/2009 Q5 (McNaught)                                     MPC 68902
    PK09Q31G  2023 04 18.8666  2.144922  0.399299    5.7062  346.1242    5.0505  20240907  14.0  4.0  P/2009 QG31 (La Sagra)                                   unp
    PK09T020  2031 06 10.6474  1.793376  0.767422  215.9499  216.3461   27.6109  20240907  14.0  4.0  P/2009 T2 (La Sagra)                                     MPC112389
    PK09W51X  2026 04 15.1648  0.802959  0.739514  118.2753   31.5333    9.5954  20240907  19.0  2.0  P/2009 WX51 (Catalina)                                   MPC105235
    PK09Y020  2026 12  1.6595  2.372143  0.637431  172.1942  262.0860   29.9738  20240907  13.0  4.0  P/2009 Y2 (Kowalski)                                     MPC 74247
    PK10A030  2025 03 11.4415  1.620880  0.734296   42.2132   63.6438   14.8190  20240907  14.0  4.0  P/2010 A3 (Hill)                                         MPC 75711
    PK10C010  2028 09 24.2058  5.249367  0.263032    3.0152  141.6111    9.1161  20240907   9.5  4.0  P/2010 C1 (Scotti)                                       MPC 75008
    PK10D020  2027 07  9.1901  3.684265  0.451772  119.9623  319.8733   57.1261  20240907  16.0  4.0  P/2010 D2 (WISE)                                         MPC 75008
    PK10E020  2035 08  5.1433  2.416530  0.720233    8.2355  177.8084   15.4087  20240907  14.0  4.0  P/2010 E2 (Jarnac)                                       MPC 75009
